{"type": "FeatureCollection", "features": [ {"type": "Feature", "properties": {"norad_id": 39122, "name": "EUTELSAT 117 WEST A", "group": "eutelsat", "lat": 0.028184116721754898, "lon": 108.27280405099083, "alt_km": 35797.90459789735, "timestamp": "2025-12-09T09:46:47.318470+00:00", "meta": {"OBJECT_NAME": "EUTELSAT 117 WEST A", "OBJECT_ID": "2013-012A", "EPOCH": "2025-12-09T03:18:42.454368", "MEAN_MOTION": 1.00270625, "ECCENTRICITY": 0.0003083, "INCLINATION": 0.013, "RA_OF_ASC_NODE": 346.505, "ARG_OF_PERICENTER": 273.6015, "MEAN_ANOMALY": 110.9018, "EPHEMERIS_TYPE": 0, "CLASSIFICATION_TYPE": "U", "NORAD_CAT_ID": 39122, "ELEMENT_SET_NO": 999, "REV_AT_EPOCH": 4652, "BSTAR": 0, "MEAN_MOTION_DOT": -1.1e-07, "MEAN_MOTION_DDOT": 0}, "tle": {"line1": "1 39122U 13012A   25343.13799137 -.00000011  00000+0  00000+0 0  9992", "line2": "2 39122   0.0130 346.5050 0003083 273.6015 110.9018  1.00270625 46524"}}, "geometry": {"type": "Point", "coordinates": [108.27280405099083, 0.028184116721754898]}}, {"type": "Feature", "properties": {"norad_id": 39163, "name": "EUTELSAT 7B", "group": "eutelsat", "lat": -0.0617906129323506, "lon": -127.9724935257112, "alt_km": 35783.450540332706, "timestamp": "2025-12-09T09:46:47.318488+00:00", "meta": {"OBJECT_NAME": "EUTELSAT 7B", "OBJECT_ID": "2013-022A", "EPOCH": "2025-12-08T22:21:38.733120", "MEAN_MOTION": 1.0027143, "ECCENTRICITY": 0.00045601, "INCLINATION": 0.0704, "RA_OF_ASC_NODE": 13.6916, "ARG_OF_PERICENTER": 300.4853, "MEAN_ANOMALY": 106.1514, "EPHEMERIS_TYPE": 0, "CLASSIFICATION_TYPE": "U", "NORAD_CAT_ID": 39163, "ELEMENT_SET_NO": 999, "REV_AT_EPOCH": 4604, "BSTAR": 0, "MEAN_MOTION_DOT": 5e-07, "MEAN_MOTION_DDOT": 0}, "tle": {"line1": "1 39163U 13022A   25342.93169830  .00000050  00000+0  00000+0 0  9998", "line2": "2 39163   0.0704  13.6916 0004560 300.4853 106.1514  1.00271430 46049"}}, "geometry": {"type": "Point", "coordinates": [-127.9724935257112, -0.0617906129323506]}}, {"type": "Feature", "properties": {"norad_id": 39612, "name": "EXPRESS-AT1", "group": "eutelsat", "lat": -0.01574288229618083, "lon": -78.89029395113164, "alt_km": 35777.675111579745, "timestamp": "2025-12-09T09:46:47.318516+00:00", "meta": {"OBJECT_NAME": "EXPRESS-AT1", "OBJECT_ID": "2014-010A", "EPOCH": "2025-12-09T03:33:59.092704", "MEAN_MOTION": 1.00291062, "ECCENTRICITY": 8.66e-05, "INCLINATION": 0.015, "RA_OF_ASC_NODE": 294.6508, "ARG_OF_PERICENTER": 21.7051, "MEAN_ANOMALY": 231.2889, "EPHEMERIS_TYPE": 0, "CLASSIFICATION_TYPE": "U", "NORAD_CAT_ID": 39612, "ELEMENT_SET_NO": 999, "REV_AT_EPOCH": 4291, "BSTAR": 0, "MEAN_MOTION_DOT": 7.8e-07, "MEAN_MOTION_DDOT": 0}, "tle": {"line1": "1 39612U 14010A   25343.14860061  .00000078  00000+0  00000+0 0  9993", "line2": "2 39612   0.0150 294.6508 0000866  21.7051 231.2889  1.00291062 42919"}}, "geometry": {"type": "Point", "coordinates": [-78.89029395113164, -0.01574288229618083]}}, {"type": "Feature", "properties": {"norad_id": 39613, "name": "EXPRESS-AT2", "group": "eutelsat", "lat": 0.02425803269534999, "lon": 4.975087536813765, "alt_km": 35784.868241832475, "timestamp": "2025-12-09T09:46:47.318534+00:00", "meta": {"OBJECT_NAME": "EXPRESS-AT2", "OBJECT_ID": "2014-010B", "EPOCH": "2025-12-09T04:20:38.774112", "MEAN_MOTION": 1.00272476, "ECCENTRICITY": 0.000156, "INCLINATION": 0.0184, "RA_OF_ASC_NODE": 311.8251, "ARG_OF_PERICENTER": 332.4367, "MEAN_ANOMALY": 358.9398, "EPHEMERIS_TYPE": 0, "CLASSIFICATION_TYPE": "U", "NORAD_CAT_ID": 39613, "ELEMENT_SET_NO": 999, "REV_AT_EPOCH": 4259, "BSTAR": 0, "MEAN_MOTION_DOT": -2.79e-06, "MEAN_MOTION_DDOT": 0}, "tle": {"line1": "1 39613U 14010B   25343.18100433 -.00000279  00000+0  00000+0 0  9992", "line2": "2 39613   0.0184 311.8251 0001560 332.4367 358.9398  1.00272476 42592"}}, "geometry": {"type": "Point", "coordinates": [4.975087536813765, 0.02425803269534999]}}, {"type": "Feature", "properties": {"norad_id": 39773, "name": "EUTELSAT 3B", "group": "eutelsat", "lat": -0.07737590782612917, "lon": -131.80144343170875, "alt_km": 35766.04278824057, "timestamp": "2025-12-09T09:46:47.318551+00:00", "meta": {"OBJECT_NAME": "EUTELSAT 3B", "OBJECT_ID": "2014-030A", "EPOCH": "2025-12-08T22:10:44.711904", "MEAN_MOTION": 1.0027126, "ECCENTRICITY": 0.00047749, "INCLINATION": 0.0633, "RA_OF_ASC_NODE": 340.6749, "ARG_OF_PERICENTER": 247.5106, "MEAN_ANOMALY": 185.5304, "EPHEMERIS_TYPE": 0, "CLASSIFICATION_TYPE": "U", "NORAD_CAT_ID": 39773, "ELEMENT_SET_NO": 999, "REV_AT_EPOCH": 4215, "BSTAR": 0, "MEAN_MOTION_DOT": 2.2e-07, "MEAN_MOTION_DDOT": 0}, "tle": {"line1": "1 39773U 14030A   25342.92412861  .00000022  00000+0  00000+0 0  9998", "line2": "2 39773   0.0633 340.6749 0004774 247.5106 185.5304  1.00271260 42150"}}, "geometry": {"type": "Point", "coordinates": [-131.80144343170875, -0.07737590782612917]}}, {"type": "Feature", "properties": {"norad_id": 40425, "name": "EUTELSAT 115 WEST B", "group": "eutelsat", "lat": -0.008175534273649535, "lon": 110.19500746119635, "alt_km": 35786.01724981763, "timestamp": "2025-12-09T09:46:47.318567+00:00", "meta": {"OBJECT_NAME": "EUTELSAT 115 WEST B", "OBJECT_ID": "2015-010B", "EPOCH": "2025-12-09T01:01:30.855072", "MEAN_MOTION": 1.00268138, "ECCENTRICITY": 2.78e-05, "INCLINATION": 0.0085, "RA_OF_ASC_NODE": 146.6018, "ARG_OF_PERICENTER": 300.0024, "MEAN_ANOMALY": 251.9196, "EPHEMERIS_TYPE": 0, "CLASSIFICATION_TYPE": "U", "NORAD_CAT_ID": 40425, "ELEMENT_SET_NO": 999, "REV_AT_EPOCH": 3948, "BSTAR": 0, "MEAN_MOTION_DOT": -2.2e-07, "MEAN_MOTION_DDOT": 0}, "tle": {"line1": "1 40425U 15010B   25343.04271823 -.00000022  00000+0  00000+0 0  9999", "line2": "2 40425   0.0085 146.6018 0000278 300.0024 251.9196  1.00268138 39488"}}, "geometry": {"type": "Point", "coordinates": [110.19500746119635, -0.008175534273649535]}}, {"type": "Feature", "properties": {"norad_id": 40875, "name": "EUTELSAT 8 WEST B", "group": "eutelsat", "lat": -0.05535791518536716, "lon": -142.92505117489495, "alt_km": 35773.15041416282, "timestamp": "2025-12-09T09:46:47.318579+00:00", "meta": {"OBJECT_NAME": "EUTELSAT 8 WEST B", "OBJECT_ID": "2015-039B", "EPOCH": "2025-12-08T22:07:37.509888", "MEAN_MOTION": 1.00271462, "ECCENTRICITY": 0.00041506, "INCLINATION": 0.0645, "RA_OF_ASC_NODE": 359.6326, "ARG_OF_PERICENTER": 259.6148, "MEAN_ANOMALY": 142.5943, "EPHEMERIS_TYPE": 0, "CLASSIFICATION_TYPE": "U", "NORAD_CAT_ID": 40875, "ELEMENT_SET_NO": 999, "REV_AT_EPOCH": 3774, "BSTAR": 0, "MEAN_MOTION_DOT": -6.3e-07, "MEAN_MOTION_DDOT": 0}, "tle": {"line1": "1 40875U 15039B   25342.92196192 -.00000063  00000+0  00000+0 0  9995", "line2": "2 40875   0.0645 359.6326 0004150 259.6148 142.5943  1.00271462 37742"}}, "geometry": {"type": "Point", "coordinates": [-142.92505117489495, -0.05535791518536716]}}, {"type": "Feature", "properties": {"norad_id": 41310, "name": "EUTELSAT 9B", "group": "eutelsat", "lat": -0.017242147218860825, "lon": -125.92434668454143, "alt_km": 35768.15308232135, "timestamp": "2025-12-09T09:46:47.318591+00:00", "meta": {"OBJECT_NAME": "EUTELSAT 9B", "OBJECT_ID": "2016-005A", "EPOCH": "2025-12-08T21:44:38.781888", "MEAN_MOTION": 1.00271973, "ECCENTRICITY": 0.00048973, "INCLINATION": 0.0356, "RA_OF_ASC_NODE": 52.0517, "ARG_OF_PERICENTER": 212.7263, "MEAN_ANOMALY": 148.2994, "EPHEMERIS_TYPE": 0, "CLASSIFICATION_TYPE": "U", "NORAD_CAT_ID": 41310, "ELEMENT_SET_NO": 999, "REV_AT_EPOCH": 3620, "BSTAR": 0, "MEAN_MOTION_DOT": 6.4e-07, "MEAN_MOTION_DDOT": 0}, "tle": {"line1": "1 41310U 16005A   25342.90600442  .00000064  00000+0  00000+0 0  9990", "line2": "2 41310   0.0356  52.0517 0004897 212.7263 148.2994  1.00271973 36204"}}, "geometry": {"type": "Point", "coordinates": [-125.92434668454143, -0.017242147218860825]}}, {"type": "Feature", "properties": {"norad_id": 41382, "name": "EUTELSAT 65 WEST A", "group": "eutelsat", "lat": 0.0225535441748844, "lon": 159.8550559764255, "alt_km": 35788.63279553925, "timestamp": "2025-12-09T09:46:47.318604+00:00", "meta": {"OBJECT_NAME": "EUTELSAT 65 WEST A", "OBJECT_ID": "2016-014A", "EPOCH": "2025-12-09T03:48:38.697408", "MEAN_MOTION": 1.00272783, "ECCENTRICITY": 0.0002667, "INCLINATION": 0.0495, "RA_OF_ASC_NODE": 4.0066, "ARG_OF_PERICENTER": 260.2751, "MEAN_ANOMALY": 165.8246, "EPHEMERIS_TYPE": 0, "CLASSIFICATION_TYPE": "U", "NORAD_CAT_ID": 41382, "ELEMENT_SET_NO": 999, "REV_AT_EPOCH": 3563, "BSTAR": 0, "MEAN_MOTION_DOT": -2.74e-06, "MEAN_MOTION_DDOT": 0}, "tle": {"line1": "1 41382U 16014A   25343.15878122 -.00000274  00000+0  00000+0 0  9993", "line2": "2 41382   0.0495   4.0066 0002667 260.2751 165.8246  1.00272783 35637"}}, "geometry": {"type": "Point", "coordinates": [159.8550559764255, 0.0225535441748844]}}, {"type": "Feature", "properties": {"norad_id": 41589, "name": "EUTELSAT 117 WEST B", "group": "eutelsat", "lat": -0.00862393404766546, "lon": 108.0997665928166, "alt_km": 35784.68495211025, "timestamp": "2025-12-09T09:46:47.318616+00:00", "meta": {"OBJECT_NAME": "EUTELSAT 117 WEST B", "OBJECT_ID": "2016-038B", "EPOCH": "2025-12-09T01:01:58.310400", "MEAN_MOTION": 1.00271867, "ECCENTRICITY": 3.72e-05, "INCLINATION": 0.0079, "RA_OF_ASC_NODE": 144.6605, "ARG_OF_PERICENTER": 293.2905, "MEAN_ANOMALY": 258.5865, "EPHEMERIS_TYPE": 0, "CLASSIFICATION_TYPE": "U", "NORAD_CAT_ID": 41589, "ELEMENT_SET_NO": 999, "REV_AT_EPOCH": 3475, "BSTAR": 0, "MEAN_MOTION_DOT": -1e-07, "MEAN_MOTION_DDOT": 0}, "tle": {"line1": "1 41589U 16038B   25343.04303600 -.00000010  00000+0  00000+0 0  9998", "line2": "2 41589   0.0079 144.6605 0000372 293.2905 258.5865  1.00271867 34753"}}, "geometry": {"type": "Point", "coordinates": [108.0997665928166, -0.00862393404766546]}}]}